KUIPER-00127            
1 65956U 25228K   26062.32450765  .00004205  00000+0  63051-3 0  9996
2 65956  51.9010  20.0175 0001406 171.8581 188.2403 14.76347939 22414
KUIPER-00128            
1 65957U 25228L   26062.08521793  .00005770  00000+0  78709-3 0  9994
2 65957  51.9022  22.3193 0000815  96.7630 263.3425 14.79831526 22351
KUIPER-00129            
1 65958U 25228M   26062.12465179  .00002221  00000+0  32028-3 0  9997
2 65958  51.9022  17.1328 0001003  84.9197 275.1880 14.79937379 22439
KUIPER-00130            
1 65959U 25228N   26062.08846277  .00005857  00000+0  79583-3 0  9990
2 65959  51.9039  19.8005 0001124  93.3998 266.7093 14.79978214 12687
KUIPER-00134            
1 65960U 25228P   26062.22054085  .00042941  00000+0  11217-2 0  9990
2 65960  51.8771 351.7148 0005306 301.7919  58.2551 15.38347653 22791
KUIPER-00135            
1 65961U 25228Q   26062.25700649 -.00004735  00000+0 -59258-3 0  9997
2 65961  51.9036  19.1148 0000906  79.6421 280.4644 14.79925586 22414
KUIPER-00136            
1 65962U 25228R   26062.09069583  .00006131  00000+0  83429-3 0  9992
2 65962  51.9018  17.3224 0001382  95.3717 264.7403 14.79843077 22425
KUIPER-00137            
1 65963U 25228S   26060.14222049  .00006080  00000+0  75902-3 0  9995
2 65963  51.9033  23.4733 0002015 145.0130 215.0966 14.83494519 22175
KUIPER-00138            
1 65964U 25228T   26062.06246352 -.00001244  00000+0 -13420-3 0  9998
2 65964  51.8998  12.3968 0000873  85.0417 275.0645 14.79937998 22496
KUIPER-00140            
1 65965U 25228U   26062.05977186  .00002771  00000+0  39238-3 0  9993
2 65965  51.9005  14.9919 0001024  82.9053 277.2025 14.79923925 22459
KUIPER-00141            
1 65966U 25228V   26062.06539791 -.00002570  00000+0 -30902-3 0  9999
2 65966  51.9048   9.9768 0001418  48.0934 312.0149 14.79817464 22524
KUIPER-00146            
1 65967U 25228W   26062.06291030  .00003919  00000+0  58838-3 0  9995
2 65967  51.9036  12.1533 0001148 105.0900 255.0187 14.76448298 22491
KUIPER-00149            
1 65968U 25228X   26062.13543286  .00006582  00000+0  89157-3 0  9994
2 65968  51.9032   7.0836 0001571  63.6344 296.4779 14.79933685 22575
KUIPER-00154            
1 65969U 25228Y   26062.23936072  .00002186  00000+0  31560-3 0  9996
2 65969  51.9020   4.1283 0000557 127.2491 232.8522 14.79945539 22627
KUIPER-00157            
1 65970U 25228Z   26062.23669546  .00006604  00000+0  89408-3 0  9990
2 65970  51.9037   6.7499 0000679  48.2866 311.8154 14.79948403 22584
KUIPER-00144            
1 67133U 25301A   26062.28673799  .00037581  00000+0  99029-3 0  9993
2 67133  51.8683  96.0651 0007959   8.6599 351.4524 15.38123737 12756
KUIPER-00164            
1 67134U 25301B   26062.50001156  .00036506  00000+0  17277-2 0  9991
2 67134  51.8783  96.2351 0004244  41.3346 155.2157 15.19005733  5539
